{
    "links": {
        "self": "http://www.neowsapp.com/rest/v1/neo/3831842?api_key=iIulBulltgU6a56xZRHN4H3l9WmuAYTsLGpBGhQ2"
    },
    "id": "3831842",
    "neo_reference_id": "3831842",
    "name": "(2018 TN5)",
    "designation": "2018 TN5",
    "nasa_jpl_url": "http://ssd.jpl.nasa.gov/sbdb.cgi?sstr=3831842",
    "absolute_magnitude_h": 20.8,
    "estimated_diameter": {
        "kilometers": {
            "estimated_diameter_min": 0.1838886721,
            "estimated_diameter_max": 0.411187571
        },
        "meters": {
            "estimated_diameter_min": 183.8886720703,
            "estimated_diameter_max": 411.1875710413
        },
        "miles": {
            "estimated_diameter_min": 0.1142630881,
            "estimated_diameter_max": 0.2555000322
        },
        "feet": {
            "estimated_diameter_min": 603.309310875,
            "estimated_diameter_max": 1349.040630575
        }
    },
    "is_potentially_hazardous_asteroid": false,
    "close_approach_data": [
        {
            "close_approach_date": "1995-07-29",
            "close_approach_date_full": "1995-Jul-29 02:30",
            "epoch_date_close_approach": 806985000000,
            "relative_velocity": {
                "kilometers_per_second": "6.8595967315",
                "kilometers_per_hour": "24694.5482333088",
                "miles_per_hour": "15344.2319286357"
            },
            "miss_distance": {
                "astronomical": "0.2415688216",
                "lunar": "93.9702716024",
                "kilometers": "36138181.169769992",
                "miles": "22455224.5162982096"
            },
            "orbiting_body": "Earth"
        },
        {
            "close_approach_date": "2031-07-31",
            "close_approach_date_full": "2031-Jul-31 07:02",
            "epoch_date_close_approach": 1943247720000,
            "relative_velocity": {
                "kilometers_per_second": "5.553927447",
                "kilometers_per_hour": "19994.1388093364",
                "miles_per_hour": "12423.5803062791"
            },
            "miss_distance": {
                "astronomical": "0.2735031446",
                "lunar": "106.3927232494",
                "kilometers": "40915487.870462002",
                "miles": "25423705.2498275476"
            },
            "orbiting_body": "Earth"
        },
        {
            "close_approach_date": "2044-07-30",
            "close_approach_date_full": "2044-Jul-30 09:11",
            "epoch_date_close_approach": 2353482660000,
            "relative_velocity": {
                "kilometers_per_second": "10.5699488723",
                "kilometers_per_hour": "38051.8159403002",
                "miles_per_hour": "23643.9186324604"
            },
            "miss_distance": {
                "astronomical": "0.4018359134",
                "lunar": "156.3141703126",
                "kilometers": "60113796.734144458",
                "miles": "37352981.2098432004"
            },
            "orbiting_body": "Earth"
        }
    ],
    "orbital_data": {
        "orbit_id": "5",
        "orbit_determination_date": "2018-12-25 06:57:05",
        "first_observation_date": "2018-10-05",
        "last_observation_date": "2018-10-28",
        "data_arc_in_days": 23,
        "observations_used": 40,
        "orbit_uncertainty": "6",
        "minimum_orbit_intersection": ".22533",
        "jupiter_tisserand_invariant": "3.503",
        "epoch_osculation": "2459000.5",
        "eccentricity": ".4544466855460721",
        "semi_major_axis": "2.201973395989263",
        "inclination": "10.36916992867576",
        "ascending_node_longitude": "339.1666553168407",
        "orbital_period": "1193.483799516939",
        "perihelion_distance": "1.201293884521314",
        "perihelion_argument": "313.2377525921925",
        "aphelion_distance": "3.202652907457212",
        "perihelion_time": "2459471.083960794052",
        "mean_anomaly": "218.054021383091",
        "mean_motion": ".3016379444326848",
        "equinox": "J2000",
        "orbit_class": {
            "orbit_class_type": "AMO",
            "orbit_class_description": "Near-Earth asteroid orbits similar to that of 1221 Amor",
            "orbit_class_range": "1.017 AU < q (perihelion) < 1.3 AU"
        }
    },
    "is_sentry_object": false
}